QIANFAN-25              
1 61558U 24185G   25364.80059572  .00000656  00000+0  39250-3 0  9999
2 61558  88.9793  76.1491 0007631 248.9531 111.0835 14.05924909 72043
QIANFAN-26              
1 61559U 24185H   25364.83166299  .00000296  00000+0  28290-3 0  9990
2 61559  88.9803  77.8019 0004091 332.8967  27.1985 13.77824075 71169
QIANFAN-27              
1 61560U 24185J   25364.76552779  .00000975  00000+0  39220-3 0  9995
2 61560  88.9795  74.8336 0006477 215.6239 144.4523 14.27358159 72736
QIANFAN-28              
1 61561U 24185K   25364.80883572  .00001428  00000+0  56946-3 0  9997
2 61561  88.9813  74.8331 0006021 213.1067 146.9752 14.28075604 72755
QIANFAN-29              
1 61562U 24185L   25364.81026809  .00000230  00000+0  33677-3 0  9997
2 61562  88.9781  79.4470 0009661   9.8812 350.2528 13.51018758 70230
QIANFAN-30              
1 61563U 24185M   25364.79881170  .00000236  00000+0  35262-3 0  9993
2 61563  88.9801  78.9807 0006850 358.1621   1.9503 13.49993687 70500
QIANFAN-31              
1 61564U 24185N   25364.80857147  .00000268  00000+0  35474-3 0  9993
2 61564  88.9784  78.7529 0006005 352.8432   7.2636 13.57974519 70613
QIANFAN-32              
1 61565U 24185P   25364.75728304  .00000240  00000+0  35494-3 0  9992
2 61565  88.9843  79.1244 0009565  23.5546 336.6041 13.50741441 70473
